     3.04           N: GNSS NAV DATA    M: MIXED            RINEX VERSION / TYPE
sbf2rin-15.6.1                          20230708 065048 UTC PGM / RUN BY / DATE 
GPUT  1.8626451492E-09 4.440892099E-15  61440 2270          TIME SYSTEM CORR    
    18                                                      LEAP SECONDS        
                                                            COMMENT             
                                                            COMMENT             
                                                            COMMENT             
                                                            COMMENT             
                                                            COMMENT             
                                                            END OF HEADER       
S22 2023 07 08 04 45 52 0.000000000000E+00 0.000000000000E+00 5.355590000000E+05
    -3.389392800000E+04 0.000000000000E+00 0.000000000000E+00 6.300000000000E+01
     2.508018800000E+04 0.000000000000E+00 0.000000000000E+00 3.276700000000E+04
     0.000000000000E+00 0.000000000000E+00 0.000000000000E+00 2.080000000000E+02
S30 2023 07 08 04 46 56 3.576278686523E-07 0.000000000000E+00 5.355920000000E+05
    -3.227137816000E+04-1.111250000000E-03 2.500000000000E-08 6.300000000000E+01
     2.711508312000E+04-6.475000000000E-04 0.000000000000E+00 3.276700000000E+04
     1.744860000000E+02 7.370000000000E-02-4.375000000000E-07 5.900000000000E+01
S37 2023 07 08 04 46 24-9.536743164063E-07 0.000000000000E+00 5.355920000000E+05
    -2.539220096000E+04-1.096250000000E-03 0.000000000000E+00 6.300000000000E+01
     3.364938104000E+04-9.050000000000E-04 0.000000000000E+00 3.276700000000E+04
     1.946400000000E+00 4.176000000000E-03 0.000000000000E+00 1.600000000000E+01
S43 2023 07 08 04 46 56 6.519258022308E-09 0.000000000000E+00 5.355920000000E+05
    -1.475902920000E+04 3.990625000000E-03 1.250000000000E-08 6.300000000000E+01
     3.952673832000E+04 1.388125000000E-03-6.250000000000E-08 3.276700000000E+04
     3.672052000000E+02-2.537600000000E-02-9.375000000000E-07 6.100000000000E+01
S44 2023 07 08 04 46 56-3.948807716370E-07 0.000000000000E+00 5.355920000000E+05
     7.326493920000E+03-2.747500000000E-03-1.500000000000E-07 6.300000000000E+01
     4.149276400000E+04-1.891875000000E-03 1.250000000000E-07 3.276700000000E+04
     1.347679200000E+03 4.758000000000E-02-3.562500000000E-06 6.000000000000E+01
S22 2023 07 08 04 47 12 0.000000000000E+00 0.000000000000E+00 5.356430000000E+05
    -3.389392800000E+04 0.000000000000E+00 0.000000000000E+00 6.300000000000E+01
     2.508018800000E+04 0.000000000000E+00 0.000000000000E+00 3.276700000000E+04
     0.000000000000E+00 0.000000000000E+00 0.000000000000E+00 2.090000000000E+02
S37 2023 07 08 04 47 28-9.536743164063E-07 0.000000000000E+00 5.356520000000E+05
    -2.539226680000E+04-1.098750000000E-03 0.000000000000E+00 6.300000000000E+01
     3.364932680000E+04-9.031250000000E-04 0.000000000000E+00 3.276700000000E+04
     2.197200000000E+00 4.176000000000E-03 0.000000000000E+00 1.700000000000E+01
S30 2023 07 08 04 48 00 3.576278686523E-07 0.000000000000E+00 5.357120000000E+05
    -3.227144912000E+04-1.106875000000E-03 2.500000000000E-08 6.300000000000E+01
     2.711504168000E+04-6.456250000000E-04 0.000000000000E+00 3.276700000000E+04
     1.792008000000E+02 7.364000000000E-02-4.375000000000E-07 5.900000000000E+01
S37 2023 07 08 04 48 32-9.536743164063E-07 0.000000000000E+00 5.357120000000E+05
    -2.539233280000E+04-1.101250000000E-03 0.000000000000E+00 6.300000000000E+01
     3.364927272000E+04-9.006250000000E-04 0.000000000000E+00 3.276700000000E+04
     2.447600000000E+00 4.176000000000E-03 0.000000000000E+00 1.800000000000E+01
S43 2023 07 08 04 48 00 6.519258022308E-09 0.000000000000E+00 5.357120000000E+05
    -1.475877376000E+04 3.992500000000E-03 1.250000000000E-08 6.300000000000E+01
     3.952682688000E+04 1.378750000000E-03-6.250000000000E-08 3.276700000000E+04
     3.655772000000E+02-2.550000000000E-02-9.375000000000E-07 6.100000000000E+01
S44 2023 07 08 04 48 00-3.948807716370E-07 0.000000000000E+00 5.357120000000E+05
     7.326317440000E+03-2.766875000000E-03-1.500000000000E-07 6.300000000000E+01
     4.149264344000E+04-1.875000000000E-03 1.250000000000E-07 3.276700000000E+04
     1.350710000000E+03 4.712000000000E-02-3.562500000000E-06 6.000000000000E+01
S22 2023 07 08 04 48 32 0.000000000000E+00 0.000000000000E+00 5.357280000000E+05
    -3.389392800000E+04 0.000000000000E+00 0.000000000000E+00 6.300000000000E+01
     2.508018800000E+04 0.000000000000E+00 0.000000000000E+00 3.276700000000E+04
     0.000000000000E+00 0.000000000000E+00 0.000000000000E+00 2.100000000000E+02
S37 2023 07 08 04 49 36-9.536743164063E-07 0.000000000000E+00 5.357720000000E+05
    -2.539239896000E+04-1.104375000000E-03 0.000000000000E+00 6.300000000000E+01
     3.364921872000E+04-8.981250000000E-04 0.000000000000E+00 3.276700000000E+04
     2.698000000000E+00 4.176000000000E-03 0.000000000000E+00 1.900000000000E+01
S22 2023 07 08 04 50 08 0.000000000000E+00 0.000000000000E+00 5.358140000000E+05
    -3.389392800000E+04 0.000000000000E+00 0.000000000000E+00 6.300000000000E+01
     2.508018800000E+04 0.000000000000E+00 0.000000000000E+00 3.276700000000E+04
     0.000000000000E+00 0.000000000000E+00 0.000000000000E+00 2.110000000000E+02
S30 2023 07 08 04 50 08 3.576278686523E-07 0.000000000000E+00 5.358320000000E+05
    -3.227159032000E+04-1.098125000000E-03 2.500000000000E-08 6.300000000000E+01
     2.711495920000E+04-6.431250000000E-04 0.000000000000E+00 3.276700000000E+04
     1.886188000000E+02 7.351600000000E-02-4.375000000000E-07 5.900000000000E+01
S37 2023 07 08 04 50 24-9.536743164063E-07 0.000000000000E+00 5.358320000000E+05
    -2.539246528000E+04-1.106875000000E-03 0.000000000000E+00 6.300000000000E+01
     3.364916488000E+04-8.962500000000E-04 0.000000000000E+00 3.276700000000E+04
     2.948400000000E+00 4.172000000000E-03 0.000000000000E+00 2.000000000000E+01
S43 2023 07 08 04 50 08 6.519258022308E-09 0.000000000000E+00 5.358320000000E+05
    -1.475826240000E+04 3.996875000000E-03 1.250000000000E-08 6.300000000000E+01
     3.952700216000E+04 1.360000000000E-03-6.250000000000E-08 3.276700000000E+04
     3.622972000000E+02-2.574400000000E-02-9.375000000000E-07 6.100000000000E+01
S44 2023 07 08 04 50 08-3.948807716370E-07 0.000000000000E+00 5.358320000000E+05
     7.325960800000E+03-2.805000000000E-03-1.375000000000E-07 6.300000000000E+01
     4.149240560000E+04-1.840625000000E-03 1.250000000000E-07 3.276700000000E+04
     1.356682400000E+03 4.620000000000E-02-3.562500000000E-06 6.000000000000E+01
S37 2023 07 08 04 51 28-9.536743164063E-07 0.000000000000E+00 5.358920000000E+05
    -2.539253176000E+04-1.109375000000E-03 0.000000000000E+00 6.300000000000E+01
     3.364911120000E+04-8.937500000000E-04 0.000000000000E+00 3.276700000000E+04
     3.198800000000E+00 4.172000000000E-03 0.000000000000E+00 2.100000000000E+01
S22 2023 07 08 04 51 28 0.000000000000E+00 0.000000000000E+00 5.358950000000E+05
    -3.389392800000E+04 0.000000000000E+00 0.000000000000E+00 6.300000000000E+01
     2.508018800000E+04 0.000000000000E+00 0.000000000000E+00 3.276700000000E+04
     0.000000000000E+00 0.000000000000E+00 0.000000000000E+00 2.120000000000E+02
S30 2023 07 08 04 52 16 3.576278686523E-07 0.000000000000E+00 5.359520000000E+05
    -3.227173040000E+04-1.090000000000E-03 2.500000000000E-08 6.300000000000E+01
     2.711487696000E+04-6.406250000000E-04 0.000000000000E+00 3.276700000000E+04
     1.980208000000E+02 7.338400000000E-02-5.000000000000E-07 5.900000000000E+01
S37 2023 07 08 04 52 32-9.536743164063E-07 0.000000000000E+00 5.359520000000E+05
    -2.539259840000E+04-1.111875000000E-03 0.000000000000E+00 6.300000000000E+01
     3.364905760000E+04-8.912500000000E-04 0.000000000000E+00 3.276700000000E+04
     3.449200000000E+00 4.172000000000E-03 0.000000000000E+00 2.200000000000E+01
S43 2023 07 08 04 52 16 6.519258022308E-09 0.000000000000E+00 5.359520000000E+05
    -1.475775048000E+04 4.000625000000E-03 1.250000000000E-08 6.300000000000E+01
     3.952717512000E+04 1.340625000000E-03-6.250000000000E-08 3.276700000000E+04
     3.589856000000E+02-2.599200000000E-02-9.375000000000E-07 6.100000000000E+01
S44 2023 07 08 04 52 16-3.948807716370E-07 0.000000000000E+00 5.359520000000E+05
     7.325599360000E+03-2.842500000000E-03-1.375000000000E-07 6.300000000000E+01
     4.149217224000E+04-1.805625000000E-03 1.250000000000E-07 3.276700000000E+04
     1.362537200000E+03 4.527200000000E-02-3.562500000000E-06 6.000000000000E+01
S22 2023 07 08 04 52 48 0.000000000000E+00 0.000000000000E+00 5.359750000000E+05
    -3.389392800000E+04 0.000000000000E+00 0.000000000000E+00 6.300000000000E+01
     2.508018800000E+04 0.000000000000E+00 0.000000000000E+00 3.276700000000E+04
     0.000000000000E+00 0.000000000000E+00 0.000000000000E+00 2.130000000000E+02
S37 2023 07 08 04 53 36-9.536743164063E-07 0.000000000000E+00 5.360120000000E+05
    -2.539266520000E+04-1.114375000000E-03 0.000000000000E+00 6.300000000000E+01
     3.364900424000E+04-8.893750000000E-04 0.000000000000E+00 3.276700000000E+04
     3.699600000000E+00 4.172000000000E-03 0.000000000000E+00 2.300000000000E+01
S22 2023 07 08 04 54 08 0.000000000000E+00 0.000000000000E+00 5.360600000000E+05
    -3.389392800000E+04 0.000000000000E+00 0.000000000000E+00 6.300000000000E+01
     2.508018800000E+04 0.000000000000E+00 0.000000000000E+00 3.276700000000E+04
     0.000000000000E+00 0.000000000000E+00 0.000000000000E+00 2.140000000000E+02
S30 2023 07 08 04 54 24 3.580935299397E-07 0.000000000000E+00 5.360720000000E+05
    -3.227186936000E+04-1.081250000000E-03 2.500000000000E-08 6.300000000000E+01
     2.711479512000E+04-6.381250000000E-04 0.000000000000E+00 3.276700000000E+04
     2.074052000000E+02 7.324400000000E-02-5.000000000000E-07 5.900000000000E+01
